STARLINK-2095           
1 47679U 21012BM  26072.66667824  .00192460  00000+0  11951-2 0  9991
2 47679  53.0261 327.4329 0006115 165.0455  21.9502 15.75900796  5992
STARLINK-2068           
1 47722U 21017A   26071.67599753 -.00000580  00000+0 -74676-5 0  9999
2 47722  53.1621 177.1479 0001243  87.9876 272.1268 15.30193814278531
STARLINK-2107           
1 47723U 21017B   26072.36318858  .00000135  00000+0  16695-4 0  9992
2 47723  53.1598 109.6342 0001322  90.7994 269.3158 15.30203802279508
STARLINK-2116           
1 47724U 21017C   26072.66667824  .00282317  00000+0  11317-2 0  9994
2 47724  53.0385  64.1280 0002549 339.9453 140.2991 15.85207705  5783
STARLINK-2131           
1 47728U 21017G   26071.62467837  .00000806  00000+0  73018-4 0  9994
2 47728  53.0562 188.4423 0001076  70.8802 289.2304 15.06388063278364
STARLINK-2140           
1 47730U 21017J   26072.66667824  .00960543  00000+0  39474-1 0  9998
2 47730  53.1170 198.2085 0001344  85.5065   0.1462 15.20972427  5810
STARLINK-2141           
1 47731U 21017K   26072.66667824  .00115997  00000+0  21002-2 0  9993
2 47731  53.1597 184.9093 0001192  35.8185 219.7816 15.48797525  5889
STARLINK-2143           
1 47733U 21017M   26072.34712984  .00006500  00000+0  23146-3 0  9999
2 47733  53.1623 199.7356 0001201  78.7950 281.3186 15.30192572278276
STARLINK-2144           
1 47734U 21017N   26072.34445933  .00001221  00000+0  53350-4 0  9993
2 47734  53.1590 186.9092 0001185  90.7322 269.3814 15.30193545278425
STARLINK-2147           
1 47736U 21017Q   26072.35816162  .00002344  00000+0  17617-3 0  9994
2 47736  53.0547 185.1514 0001171  85.8457 274.2666 15.06412101278477
STARLINK-2150           
1 47739U 21017T   26072.40776237  .00005340  00000+0  19231-3 0  9994
2 47739  53.1606 201.9576 0001184 109.7649 250.3480 15.30195131278258
STARLINK-2156           
1 47742U 21017W   26072.28033656  .00008562  00000+0  30094-3 0  9994
2 47742  53.1609 177.4990 0000934  65.5608 294.5490 15.30192571278580
STARLINK-2159           
1 47745U 21017Z   26072.34793850  .00068060  00000+0  14503-2 0  9998
2 47745  53.1595 186.8315 0001597  44.6996 315.4140 15.44320129278409
STARLINK-2160           
1 47746U 21017AA  26071.72297626 -.00001329  00000+0 -32749-4 0  9991
2 47746  53.1614 190.1472 0001443 104.1701 255.9460 15.30188934278291
STARLINK-2161           
1 47747U 21017AB  26071.68612697 -.00000094  00000+0  89504-5 0  9995
2 47747  53.1608 179.9790 0001417  75.8934 284.2224 15.30194862278476
STARLINK-2162           
1 47748U 21017AC  26072.66667824  .01033332  00000+0  17289-1 0  9995
2 47748  53.1603 174.2168 0001254  60.2603 256.8846 15.48613861  5881
