[{"OBJECT_NAME":"STARLINK-2095","OBJECT_ID":"2021-012BM","EPOCH":"2026-03-13T16:00:00.999936","MEAN_MOTION":15.75900796,"ECCENTRICITY":0.00061159,"INCLINATION":53.0261,"RA_OF_ASC_NODE":327.4329,"ARG_OF_PERICENTER":165.0455,"MEAN_ANOMALY":21.9502,"EPHEMERIS_TYPE":0,"CLASSIFICATION_TYPE":"U","NORAD_CAT_ID":47679,"ELEMENT_SET_NO":999,"REV_AT_EPOCH":599,"BSTAR":0.0011950949,"MEAN_MOTION_DOT":0.0019246,"MEAN_MOTION_DDOT":0},{"OBJECT_NAME":"STARLINK-2068","OBJECT_ID":"2021-017A","EPOCH":"2026-03-12T16:13:26.186592","MEAN_MOTION":15.30193814,"ECCENTRICITY":0.00012431,"INCLINATION":53.1621,"RA_OF_ASC_NODE":177.1479,"ARG_OF_PERICENTER":87.9876,"MEAN_ANOMALY":272.1268,"EPHEMERIS_TYPE":0,"CLASSIFICATION_TYPE":"U","NORAD_CAT_ID":47722,"ELEMENT_SET_NO":999,"REV_AT_EPOCH":27853,"BSTAR":-7.467567e-6,"MEAN_MOTION_DOT":-5.8e-6,"MEAN_MOTION_DDOT":0},{"OBJECT_NAME":"STARLINK-2107","OBJECT_ID":"2021-017B","EPOCH":"2026-03-13T08:42:59.493312","MEAN_MOTION":15.30203802,"ECCENTRICITY":0.00013225,"INCLINATION":53.1598,"RA_OF_ASC_NODE":109.6342,"ARG_OF_PERICENTER":90.7994,"MEAN_ANOMALY":269.3158,"EPHEMERIS_TYPE":0,"CLASSIFICATION_TYPE":"U","NORAD_CAT_ID":47723,"ELEMENT_SET_NO":999,"REV_AT_EPOCH":27950,"BSTAR":1.6694843e-5,"MEAN_MOTION_DOT":1.35e-6,"MEAN_MOTION_DDOT":0},{"OBJECT_NAME":"STARLINK-2116","OBJECT_ID":"2021-017C","EPOCH":"2026-03-13T16:00:00.999936","MEAN_MOTION":15.85207705,"ECCENTRICITY":0.00025498,"INCLINATION":53.0385,"RA_OF_ASC_NODE":64.128,"ARG_OF_PERICENTER":339.9453,"MEAN_ANOMALY":140.2991,"EPHEMERIS_TYPE":0,"CLASSIFICATION_TYPE":"U","NORAD_CAT_ID":47724,"ELEMENT_SET_NO":999,"REV_AT_EPOCH":578,"BSTAR":0.0011317201,"MEAN_MOTION_DOT":0.00282317,"MEAN_MOTION_DDOT":0},{"OBJECT_NAME":"STARLINK-2131","OBJECT_ID":"2021-017G","EPOCH":"2026-03-12T14:59:32.211168","MEAN_MOTION":15.06388063,"ECCENTRICITY":0.0001076,"INCLINATION":53.0562,"RA_OF_ASC_NODE":188.4423,"ARG_OF_PERICENTER":70.8802,"MEAN_ANOMALY":289.2304,"EPHEMERIS_TYPE":0,"CLASSIFICATION_TYPE":"U","NORAD_CAT_ID":47728,"ELEMENT_SET_NO":999,"REV_AT_EPOCH":27836,"BSTAR":7.3018e-5,"MEAN_MOTION_DOT":8.06e-6,"MEAN_MOTION_DDOT":0},{"OBJECT_NAME":"STARLINK-2140","OBJECT_ID":"2021-017J","EPOCH":"2026-03-13T16:00:00.999936","MEAN_MOTION":15.20972427,"ECCENTRICITY":0.00013444,"INCLINATION":53.117,"RA_OF_ASC_NODE":198.2085,"ARG_OF_PERICENTER":85.5065,"MEAN_ANOMALY":0.1462,"EPHEMERIS_TYPE":0,"CLASSIFICATION_TYPE":"U","NORAD_CAT_ID":47730,"ELEMENT_SET_NO":999,"REV_AT_EPOCH":581,"BSTAR":0.039473633,"MEAN_MOTION_DOT":0.00960543,"MEAN_MOTION_DDOT":0},{"OBJECT_NAME":"STARLINK-2141","OBJECT_ID":"2021-017K","EPOCH":"2026-03-13T16:00:00.999936","MEAN_MOTION":15.48797525,"ECCENTRICITY":0.00011921,"INCLINATION":53.1597,"RA_OF_ASC_NODE":184.9093,"ARG_OF_PERICENTER":35.8185,"MEAN_ANOMALY":219.7816,"EPHEMERIS_TYPE":0,"CLASSIFICATION_TYPE":"U","NORAD_CAT_ID":47731,"ELEMENT_SET_NO":999,"REV_AT_EPOCH":588,"BSTAR":0.0021001713,"MEAN_MOTION_DOT":0.00115997,"MEAN_MOTION_DDOT":0},{"OBJECT_NAME":"STARLINK-2143","OBJECT_ID":"2021-017M","EPOCH":"2026-03-13T08:19:52.018176","MEAN_MOTION":15.30192572,"ECCENTRICITY":0.00012011,"INCLINATION":53.1623,"RA_OF_ASC_NODE":199.7356,"ARG_OF_PERICENTER":78.795,"MEAN_ANOMALY":281.3186,"EPHEMERIS_TYPE":0,"CLASSIFICATION_TYPE":"U","NORAD_CAT_ID":47733,"ELEMENT_SET_NO":999,"REV_AT_EPOCH":27827,"BSTAR":0.00023145688,"MEAN_MOTION_DOT":6.5e-5,"MEAN_MOTION_DDOT":0},{"OBJECT_NAME":"STARLINK-2144","OBJECT_ID":"2021-017N","EPOCH":"2026-03-13T08:16:01.286112","MEAN_MOTION":15.30193545,"ECCENTRICITY":0.00011857,"INCLINATION":53.159,"RA_OF_ASC_NODE":186.9092,"ARG_OF_PERICENTER":90.7322,"MEAN_ANOMALY":269.3814,"EPHEMERIS_TYPE":0,"CLASSIFICATION_TYPE":"U","NORAD_CAT_ID":47734,"ELEMENT_SET_NO":999,"REV_AT_EPOCH":27842,"BSTAR":5.3349889e-5,"MEAN_MOTION_DOT":1.221e-5,"MEAN_MOTION_DDOT":0},{"OBJECT_NAME":"STARLINK-2147","OBJECT_ID":"2021-017Q","EPOCH":"2026-03-13T08:35:45.163968","MEAN_MOTION":15.06412101,"ECCENTRICITY":0.0001171,"INCLINATION":53.0547,"RA_OF_ASC_NODE":185.1514,"ARG_OF_PERICENTER":85.8457,"MEAN_ANOMALY":274.2666,"EPHEMERIS_TYPE":0,"CLASSIFICATION_TYPE":"U","NORAD_CAT_ID":47736,"ELEMENT_SET_NO":999,"REV_AT_EPOCH":27847,"BSTAR":0.00017616971,"MEAN_MOTION_DOT":2.344e-5,"MEAN_MOTION_DDOT":0},{"OBJECT_NAME":"STARLINK-2150","OBJECT_ID":"2021-017T","EPOCH":"2026-03-13T09:47:10.668768","MEAN_MOTION":15.30195131,"ECCENTRICITY":0.00011842,"INCLINATION":53.1606,"RA_OF_ASC_NODE":201.9576,"ARG_OF_PERICENTER":109.7649,"MEAN_ANOMALY":250.348,"EPHEMERIS_TYPE":0,"CLASSIFICATION_TYPE":"U","NORAD_CAT_ID":47739,"ELEMENT_SET_NO":999,"REV_AT_EPOCH":27825,"BSTAR":0.0001923086,"MEAN_MOTION_DOT":5.34e-5,"MEAN_MOTION_DDOT":0},{"OBJECT_NAME":"STARLINK-2156","OBJECT_ID":"2021-017W","EPOCH":"2026-03-13T06:43:41.078784","MEAN_MOTION":15.30192571,"ECCENTRICITY":9.344e-5,"INCLINATION":53.1609,"RA_OF_ASC_NODE":177.499,"ARG_OF_PERICENTER":65.5608,"MEAN_ANOMALY":294.549,"EPHEMERIS_TYPE":0,"CLASSIFICATION_TYPE":"U","NORAD_CAT_ID":47742,"ELEMENT_SET_NO":999,"REV_AT_EPOCH":27858,"BSTAR":0.00030093531,"MEAN_MOTION_DOT":8.562e-5,"MEAN_MOTION_DDOT":0},{"OBJECT_NAME":"STARLINK-2159","OBJECT_ID":"2021-017Z","EPOCH":"2026-03-13T08:21:01.886400","MEAN_MOTION":15.44320129,"ECCENTRICITY":0.00015975,"INCLINATION":53.1595,"RA_OF_ASC_NODE":186.8315,"ARG_OF_PERICENTER":44.6996,"MEAN_ANOMALY":315.414,"EPHEMERIS_TYPE":0,"CLASSIFICATION_TYPE":"U","NORAD_CAT_ID":47745,"ELEMENT_SET_NO":999,"REV_AT_EPOCH":27840,"BSTAR":0.0014503273,"MEAN_MOTION_DOT":0.0006806,"MEAN_MOTION_DDOT":0},{"OBJECT_NAME":"STARLINK-2160","OBJECT_ID":"2021-017AA","EPOCH":"2026-03-12T17:21:05.148864","MEAN_MOTION":15.30188934,"ECCENTRICITY":0.00014434,"INCLINATION":53.1614,"RA_OF_ASC_NODE":190.1472,"ARG_OF_PERICENTER":104.1701,"MEAN_ANOMALY":255.946,"EPHEMERIS_TYPE":0,"CLASSIFICATION_TYPE":"U","NORAD_CAT_ID":47746,"ELEMENT_SET_NO":999,"REV_AT_EPOCH":27829,"BSTAR":-3.2748752e-5,"MEAN_MOTION_DOT":-1.329e-5,"MEAN_MOTION_DDOT":0},{"OBJECT_NAME":"STARLINK-2161","OBJECT_ID":"2021-017AB","EPOCH":"2026-03-12T16:28:01.370208","MEAN_MOTION":15.30194862,"ECCENTRICITY":0.00014179,"INCLINATION":53.1608,"RA_OF_ASC_NODE":179.979,"ARG_OF_PERICENTER":75.8934,"MEAN_ANOMALY":284.2224,"EPHEMERIS_TYPE":0,"CLASSIFICATION_TYPE":"U","NORAD_CAT_ID":47747,"ELEMENT_SET_NO":999,"REV_AT_EPOCH":27847,"BSTAR":8.950383e-6,"MEAN_MOTION_DOT":-9.4e-7,"MEAN_MOTION_DDOT":0},{"OBJECT_NAME":"STARLINK-2162","OBJECT_ID":"2021-017AC","EPOCH":"2026-03-13T16:00:00.999936","MEAN_MOTION":15.48613861,"ECCENTRICITY":0.00012546,"INCLINATION":53.1603,"RA_OF_ASC_NODE":174.2168,"ARG_OF_PERICENTER":60.2603,"MEAN_ANOMALY":256.8846,"EPHEMERIS_TYPE":0,"CLASSIFICATION_TYPE":"U","NORAD_CAT_ID":47748,"ELEMENT_SET_NO":999,"REV_AT_EPOCH":588,"BSTAR":0.017289289,"MEAN_MOTION_DOT":0.01033332,"MEAN_MOTION_DDOT":0}]
